NORAD_CAT_ID,OBJECT_NAME,OBJECT_TYPE,EPOCH,MEAN_MOTION,ECCENTRICITY,INCLINATION,RA_OF_ASC_NODE,ARG_OF_PERICENTER,MEAN_ANOMALY,BSTAR,MEAN_MOTION_DOT,MEAN_MOTION_DDOT,TLE_LINE0,TLE_LINE1,TLE_LINE2,SEMIMAJOR_AXIS,PERIOD,APOGEE,PERIGEE,DECAYED
52846.0,STARLINK-4212,PAYLOAD,2024-01-15 05:51:32,15.08854123,0.0001684,53.2184,315.6385,124.1755,235.9397,4.0732e-05,3.6e-06,0.0,0 STARLINK-4212,1 52846U 22062S   24015.24412909  .00000360  00000-0  40732-4 0  9999,2 52846  53.2184 315.6385 0001684 124.1755 235.9397 15.08854123 87364,6917.837,95.437,540.867,538.537,0.0
52846.0,STARLINK-4212,PAYLOAD,2024-01-16 00:56:11,15.08838017,0.0001713,53.2174,312.0725,100.1293,259.9892,-5.2731e-05,-1.127e-05,0.0,0 STARLINK-4212,1 52846U 22062S   24016.03902029 -.00001127  00000-0 -52731-4 0  9990,2 52846  53.2174 312.0725 0001713 100.1293 259.9892 15.08838017 87973,6917.886,95.438,540.936,538.566,0.0
52846.0,STARLINK-4212,PAYLOAD,2024-01-16 05:42:20,15.08846311,0.000162,53.2181,311.1806,92.8122,267.3056,8.5384e-05,1.071e-05,0.0,0 STARLINK-4212,1 52846U 22062S   24016.23773654  .00001071  00000-0  85384-4 0  9998,2 52846  53.2181 311.1806 0001620  92.8122 267.3056 15.08846311 88002,6917.861,95.437,540.847,538.605,0.0
52846.0,STARLINK-4212,PAYLOAD,2024-01-16 20:00:48,15.08844539,0.0001913,53.2192,308.509,113.1506,246.9688,-2.0202e-05,-6.1e-06,0.0,0 STARLINK-4212,1 52846U 22062S   24016.83389565 -.00000610  00000-0 -20202-4 0  9996,2 52846  53.2192 308.5090 0001913 113.1506 246.9688 15.08844539 87606,6917.867,95.437,541.055,538.408,0.0
52846.0,STARLINK-4212,PAYLOAD,2024-01-17 02:22:20,15.08862998,0.0001333,53.2174,307.3168,95.4577,264.6567,0.0002449,3.614e-05,0.0,0 STARLINK-4212,1 52846U 22062S   24017.09884566  .00003614  00000-0  24490-3 0  9993,2 52846  53.2174 307.3168 0001333  95.4577 264.6567 15.08862998 88136,6917.81,95.436,540.597,538.753,0.0
52846.0,STARLINK-4212,PAYLOAD,2024-01-17 21:26:59,15.0883716,0.0001362,53.2171,303.7497,91.4821,268.6327,-3.9085e-05,-9.1e-06,0.0,0 STARLINK-4212,1 52846U 22062S   24017.89374028 -.00000910  00000-0 -39085-4 0  9993,2 52846  53.2171 303.7497 0001362  91.4821 268.6327 15.08837160 87767,6917.889,95.438,540.696,538.812,0.0
52846.0,STARLINK-4212,PAYLOAD,2024-01-18 03:48:31,15.08838703,0.0001474,53.2168,302.5577,95.837,264.279,5.253e-05,5.48e-06,0.0,0 STARLINK-4212,1 52846U 22062S   24018.15870049  .00000548  00000-0  52530-4 0  9992,2 52846  53.2168 302.5577 0001474  95.8370 264.2790 15.08838703 88299,6917.884,95.438,540.769,538.73,0.0
52846.0,STARLINK-4212,PAYLOAD,2024-01-18 21:17:45,15.08854418,0.0001423,53.218,299.2854,98.0601,262.0552,0.00012797,1.75e-05,0.0,0 STARLINK-4212,1 52846U 22062S   24018.88733012  .00001750  00000-0  12797-3 0  9996,2 52846  53.2180 299.2854 0001423  98.0601 262.0552 15.08854418 87910,6917.836,95.437,540.686,538.717,0.0
52846.0,STARLINK-4212,PAYLOAD,2024-01-19 03:39:17,15.08870009,0.0001481,53.2179,298.0949,105.5731,254.5424,0.00036801,5.578e-05,0.0,0 STARLINK-4212,1 52846U 22062S   24019.15228013  .00005578  00000-0  36801-3 0  9991,2 52846  53.2179 298.0949 0001481 105.5731 254.5424 15.08870009 88449,6917.789,95.436,540.678,538.629,0.0
52846.0,STARLINK-4212,PAYLOAD,2024-01-19 22:43:56,15.08836442,0.000144,53.2173,294.5281,86.5885,273.5272,-5.6021e-06,-3.77e-06,0.0,0 STARLINK-4212,1 52846U 22062S   24019.94717719 -.00000377  00000-0 -56021-5 0  9996,2 52846  53.2173 294.5281 0001440  86.5885 273.5272 15.08836442 88070,6917.891,95.438,540.752,538.76,0.0
52846.0,STARLINK-4212,PAYLOAD,2024-01-20 03:30:05,15.08836215,0.0001365,53.217,293.6361,80.1083,280.0063,-8.1838e-06,-4.18e-06,0.0,0 STARLINK-4212,1 52846U 22062S   24020.14589737 -.00000418  00000-0 -81838-5 0  9997,2 52846  53.2170 293.6361 0001365  80.1083 280.0063 15.08836215 88598,6917.892,95.438,540.701,538.813,0.0
52846.0,STARLINK-4212,PAYLOAD,2024-01-20 22:34:43,15.08829424,0.0001439,53.2169,290.0683,78.1732,281.9422,0.00026684,3.96e-05,0.0,0 STARLINK-4212,1 52846U 22062S   24020.94078590  .00003960  00000-0  26684-3 0  9994,2 52846  53.2169 290.0683 0001439  78.1732 281.9422 15.08829424 88227,6917.913,95.438,540.773,538.782,0.0
52846.0,STARLINK-4212,PAYLOAD,2024-01-21 00:10:07,15.08833997,0.0001789,53.2181,289.7721,63.9826,296.1351,0.00019006,2.738e-05,0.0,0 STARLINK-4212,1 52846U 22062S   24021.00702623  .00002738  00000-0  19006-3 0  9995,2 52846  53.2181 289.7721 0001789  63.9826 296.1351 15.08833997 88727,6917.899,95.438,541.001,538.526,0.0
52846.0,STARLINK-4212,PAYLOAD,2024-01-21 22:25:30,15.08842048,0.0001387,53.2166,285.6109,88.7172,271.3979,0.00035647,5.39e-05,0.0,0 STARLINK-4212,1 52846U 22062S   24021.93438647  .00005390  00000-0  35647-3 0  9995,2 52846  53.2166 285.6109 0001387  88.7172 271.3979 15.08842048 88377,6917.874,95.437,540.699,538.78,0.0
52846.0,STARLINK-4212,PAYLOAD,2024-01-22 03:11:40,15.08849578,0.0001405,53.2168,284.7173,92.4978,267.6175,0.00048678,7.47e-05,0.0,0 STARLINK-4212,1 52846U 22062S   24022.13310391  .00007470  00000-0  48678-3 0  9992,2 52846  53.2168 284.7173 0001405  92.4978 267.6175 15.08849578 88895,6917.851,95.437,540.688,538.744,0.0
52846.0,STARLINK-4212,PAYLOAD,2024-01-22 22:16:18,15.08839623,0.0001446,53.2169,281.1521,63.1641,296.9499,0.00013596,1.876e-05,0.0,0 STARLINK-4212,1 52846U 22062S   24022.92799001  .00001876  00000-0  13596-3 0  9993,2 52846  53.2169 281.1521 0001446  63.1641 296.9499 15.08839623 88525,6917.882,95.438,540.747,538.746,0.0
52846.0,STARLINK-4212,PAYLOAD,2024-01-22 23:51:41,15.08842788,0.0001397,53.2162,280.8543,76.5825,283.5323,0.0002187,3.195e-05,0.0,0 STARLINK-4212,1 52846U 22062S   24022.99422868  .00003195  00000-0  21870-3 0  9994,2 52846  53.2162 280.8543 0001397  76.5825 283.5323 15.08842788 89025,6917.872,95.437,540.703,538.77,0.0
52846.0,STARLINK-4212,PAYLOAD,2024-01-23 22:07:04,15.08857006,0.0001354,53.2164,276.6893,99.2713,260.8433,0.00052657,8.106e-05,0.0,0 STARLINK-4212,1 52846U 22062S   24023.92158279  .00008106  00000-0  52657-3 0  9994,2 52846  53.2164 276.6893 0001354  99.2713 260.8433 15.08857006 88678,6917.828,95.436,540.63,538.757,0.0
52846.0,STARLINK-4212,PAYLOAD,2024-01-24 20:22:28,15.08843855,0.0001549,53.2166,272.5251,109.8857,250.2302,0.00014422,2.008e-05,0.0,0 STARLINK-4212,1 52846U 22062S   24024.84894611  .00002008  00000-0  14422-3 0  9996,2 52846  53.2166 272.5251 0001549 109.8857 250.2302 15.08843855 89302,6917.869,95.437,540.805,538.662,0.0
52846.0,STARLINK-4212,PAYLOAD,2024-01-24 21:57:52,15.08841186,0.0001423,53.2163,272.2284,103.7904,256.3246,9.1495e-05,1.169e-05,0.0,0 STARLINK-4212,1 52846U 22062S   24024.91518717  .00001169  00000-0  91495-4 0  9997,2 52846  53.2163 272.2284 0001423 103.7904 256.3246 15.08841186 88824,6917.877,95.437,540.726,538.757,0.0
52846.0,STARLINK-4212,PAYLOAD,2024-01-24 23:33:15,15.08840113,0.0001287,53.2157,271.9328,84.8572,275.2567,7.5273e-05,9.1e-06,0.0,0 STARLINK-4212,1 52846U 22062S   24024.98142893  .00000910  00000-0  75273-4 0  9991,2 52846  53.2157 271.9328 0001287  84.8572 275.2567 15.08840113 88836,6917.88,95.438,540.635,538.855,0.0
52846.0,STARLINK-4212,PAYLOAD,2024-01-25 20:13:16,15.08834113,0.0001359,53.216,268.0684,96.387,263.7277,-3.2681e-05,-8.08e-06,0.0,0 STARLINK-4212,1 52846U 22062S   24025.84255526 -.00000808  00000-0 -32681-4 0  9999,2 52846  53.2160 268.0684 0001359  96.3870 263.7277 15.08834113 89453,6917.898,95.438,540.704,538.823,0.0
52846.0,STARLINK-4212,PAYLOAD,2024-01-25 21:48:39,15.08840672,0.000156,53.2169,267.774,112.1281,247.9876,-7.1805e-05,-1.431e-05,0.0,0 STARLINK-4212,1 52846U 22062S   24025.90879277 -.00001431  00000-0 -71805-4 0  9995,2 52846  53.2169 267.7740 0001560 112.1281 247.9876 15.08840672 88970,6917.878,95.438,540.823,538.664,0.0
52846.0,STARLINK-4212,PAYLOAD,2024-01-25 23:24:02,15.08842013,0.0001425,53.2162,267.4716,99.8122,260.3031,-3.8026e-05,-8.93e-06,0.0,0 STARLINK-4212,1 52846U 22062S   24025.97503252 -.00000893  00000-0 -38026-4 0  9998,2 52846  53.2162 267.4716 0001425  99.8122 260.3031 15.08842013 89477,6917.874,95.437,540.725,538.753,0.0
52846.0,STARLINK-4212,PAYLOAD,2024-01-26 23:14:49,15.08851736,0.0001439,53.2155,263.0105,81.3402,278.7753,0.00042554,6.493e-05,0.0,0 STARLINK-4212,1 52846U 22062S   24026.96863123  .00006493  00000-0  42554-3 0  9994,2 52846  53.2155 263.0105 0001439  81.3402 278.7753 15.08851736 89628,6917.845,95.437,540.705,538.714,0.0
52846.0,STARLINK-4212,PAYLOAD,2024-01-27 19:54:50,15.08847209,0.0001571,53.2158,259.1428,72.2757,287.8407,0.00018437,2.648e-05,0.0,0 STARLINK-4212,1 52846U 22062S   24027.82975234  .00002648  00000-0  18437-3 0  9998,2 52846  53.2158 259.1428 0001571  72.2757 287.8407 15.08847209 89755,6917.858,95.437,540.81,538.637,0.0
52846.0,STARLINK-4212,PAYLOAD,2024-01-27 23:05:37,15.08844147,0.0002119,53.216,258.5502,56.4991,303.6203,0.00011805,1.591e-05,0.0,0 STARLINK-4212,1 52846U 22062S   24027.96223438  .00001591  00000-0  11805-3 0  9993,2 52846  53.2160 258.5502 0002119  56.4991 303.6203 15.08844147 89284,6917.868,95.437,541.199,538.267,0.0
52846.0,STARLINK-4212,PAYLOAD,2024-01-28 19:45:37,15.08845232,0.0001842,53.2162,254.6851,65.013,295.1054,-2.5152e-05,-6.88e-06,0.0,0 STARLINK-4212,1 52846U 22062S   24028.82335376 -.00000688  00000-0 -25152-4 0  9993,2 52846  53.2162 254.6851 0001842  65.0130 295.1054 15.08845232 89907,6917.864,95.437,541.004,538.455,0.0
52846.0,STARLINK-4212,PAYLOAD,2024-01-28 21:21:00,15.08844094,0.0001639,53.216,254.3894,72.3063,287.8108,-4.2316e-05,-9.62e-06,0.0,0 STARLINK-4212,1 52846U 22062S   24028.88959347 -.00000962  00000-0 -42316-4 0  9995,2 52846  53.2160 254.3894 0001639  72.3063 287.8108 15.08844094 89429,6917.868,95.437,540.867,538.599,0.0
52846.0,STARLINK-4212,PAYLOAD,2024-01-30 00:22:33,15.08848419,0.0001751,53.2167,249.3326,70.999,289.1192,0.0002036,2.954e-05,0.0,0 STARLINK-4212,1 52846U 22062S   24030.01567002  .00002954  00000-0  20360-3 0  9991,2 52846  53.2167 249.3326 0001751  70.9990 289.1192 15.08848419 90085,6917.855,95.437,540.931,538.508,0.0
